start=new Date('2022-07-09T00:00:00.000Z').valueOf();
sats=[{"APOAPSIS":"548.465","MEAN_MOTION":"15.06415061","OBJECT_NAME":"STARLINK-2619","BSTAR":"0.00017927000000","MEAN_ELEMENT_THEORY":"SGP4","SITE":"AFETR","TLE_LINE1":"1 48475U 21040AZ  22189.85631435  .00002391  00000-0  17927-3 0  9996","OBJECT_ID":"2021-040AZ","TIME_SYSTEM":"UTC","SEMIMAJOR_AXIS":"6925.302","REV_AT_EPOCH":"6454","NORAD_CAT_ID":"48475","RCS_SIZE":"LARGE","COUNTRY_CODE":"US","LAUNCH_DATE":"2021-05-09","ARG_OF_PERICENTER":"63.2854","REF_FRAME":"TEME","CENTER_NAME":"EARTH","PERIAPSIS":"545.870","DECAY_DATE":null,"INCLINATION":"53.0557","MEAN_MOTION_DDOT":"0.0000000000000","ECCENTRICITY":"0.00018740","TLE_LINE2":"2 48475  53.0557  86.3744 0001874  63.2854 296.8326 15.06415061 64549","OBJECT_TYPE":"PAYLOAD","FILE":"3510087","MEAN_ANOMALY":"296.8326","ELEMENT_SET_NO":"999","EPOCH":"2022-07-08T20:33:05.559840","RA_OF_ASC_NODE":"86.3744","CLASSIFICATION_TYPE":"U","GP_ID":"207694234","MEAN_MOTION_DOT":"0.00002391","EPHEMERIS_TYPE":"0","PERIOD":"95.591"},{"MEAN_ELEMENT_THEORY":"SGP4","BSTAR":"0.00034684000000","TLE_LINE1":"1 48476U 21040BA  22189.74575143  .00004891  00000-0  34684-3 0  9994","OBJECT_ID":"2021-040BA","SITE":"AFETR","MEAN_MOTION":"15.06420361","APOAPSIS":"548.369","OBJECT_NAME":"STARLINK-2723","LAUNCH_DATE":"2021-05-09","ARG_OF_PERICENTER":"64.3757","COUNTRY_CODE":"US","TIME_SYSTEM":"UTC","SEMIMAJOR_AXIS":"6925.286","RCS_SIZE":"LARGE","NORAD_CAT_ID":"48476","REV_AT_EPOCH":"6452","MEAN_MOTION_DDOT":"0.0000000000000","ECCENTRICITY":"0.00017580","INCLINATION":"53.0545","OBJECT_TYPE":"PAYLOAD","TLE_LINE2":"2 48476  53.0545  86.8557 0001758  64.3757 295.7414 15.06420361 64522","REF_FRAME":"TEME","DECAY_DATE":null,"CENTER_NAME":"EARTH","PERIAPSIS":"545.934","RA_OF_ASC_NODE":"86.8557","CLASSIFICATION_TYPE":"U","MEAN_MOTION_DOT":"0.00004891","GP_ID":"207694484","EPOCH":"2022-07-08T17:53:52.923552","PERIOD":"95.591","EPHEMERIS_TYPE":"0","FILE":"3510087","MEAN_ANOMALY":"295.7414","ELEMENT_SET_NO":"999"},{"REF_FRAME":"TEME","CENTER_NAME":"EARTH","PERIAPSIS":"546.010","DECAY_DATE":null,"INCLINATION":"53.0554","MEAN_MOTION_DDOT":"0.0000000000000","ECCENTRICITY":"0.00017330","TLE_LINE2":"2 48478  53.0554  86.3454 0001733  61.0820 299.0342 15.06401009 64540","OBJECT_TYPE":"PAYLOAD","FILE":"3510087","MEAN_ANOMALY":"299.0342","ELEMENT_SET_NO":"999","EPOCH":"2022-07-08T20:43:44.263200","RA_OF_ASC_NODE":"86.3454","CLASSIFICATION_TYPE":"U","MEAN_MOTION_DOT":"0.00000169","GP_ID":"207694735","EPHEMERIS_TYPE":"0","PERIOD":"95.592","APOAPSIS":"548.411","MEAN_MOTION":"15.06401009","OBJECT_NAME":"STARLINK-2728","BSTAR":"0.00003026000000","MEAN_ELEMENT_THEORY":"SGP4","SITE":"AFETR","TLE_LINE1":"1 48478U 02032DG  22189.86370675  .00000169  00000-0  30260-4 0  9993","OBJECT_ID":"2021-040BC","TIME_SYSTEM":"UTC","SEMIMAJOR_AXIS":"6925.345","REV_AT_EPOCH":"6454","RCS_SIZE":"LARGE","NORAD_CAT_ID":"48478","COUNTRY_CODE":"US","LAUNCH_DATE":"2021-05-09","ARG_OF_PERICENTER":"61.0820"},{"SITE":"AFETR","TLE_LINE1":"1 48479U 21040BD  22189.85999786 -.00004738  00000-0 -29896-3 0  9993","OBJECT_ID":"2021-040BD","BSTAR":"-0.00029896000000","MEAN_ELEMENT_THEORY":"SGP4","OBJECT_NAME":"STARLINK-2755","APOAPSIS":"548.441","MEAN_MOTION":"15.06446508","COUNTRY_CODE":"US","ARG_OF_PERICENTER":"72.8039","LAUNCH_DATE":"2021-05-09","REV_AT_EPOCH":"6454","NORAD_CAT_ID":"48479","RCS_SIZE":"LARGE","SEMIMAJOR_AXIS":"6925.206","TIME_SYSTEM":"UTC","TLE_LINE2":"2 48479  53.0560  86.3558 0001978  72.8039 287.3167 15.06446508 64544","OBJECT_TYPE":"PAYLOAD","INCLINATION":"53.0560","ECCENTRICITY":"0.00019780","MEAN_MOTION_DDOT":"0.0000000000000","PERIAPSIS":"545.701","CENTER_NAME":"EARTH","DECAY_DATE":null,"REF_FRAME":"TEME","EPHEMERIS_TYPE":"0","PERIOD":"95.589","EPOCH":"2022-07-08T20:38:23.815104","GP_ID":"207695486","MEAN_MOTION_DOT":"-0.00004738","CLASSIFICATION_TYPE":"U","RA_OF_ASC_NODE":"86.3558","MEAN_ANOMALY":"287.3167","ELEMENT_SET_NO":"999","FILE":"3510087"},{"MEAN_ELEMENT_THEORY":"SGP4","BSTAR":"0.00024506000000","OBJECT_ID":"2021-040BE","TLE_LINE1":"1 48480U 21040BE  22189.74019189  .00003372  00000-0  24506-3 0  9997","SITE":"AFETR","MEAN_MOTION":"15.06414258","APOAPSIS":"548.785","OBJECT_NAME":"STARLINK-2690","ARG_OF_PERICENTER":"72.1516","LAUNCH_DATE":"2021-05-09","COUNTRY_CODE":"US","TIME_SYSTEM":"UTC","SEMIMAJOR_AXIS":"6925.305","RCS_SIZE":"LARGE","NORAD_CAT_ID":"48480","REV_AT_EPOCH":"6438","ECCENTRICITY":"0.00023320","MEAN_MOTION_DDOT":"0.0000000000000","INCLINATION":"53.0565","OBJECT_TYPE":"PAYLOAD","TLE_LINE2":"2 48480  53.0565  96.8827 0002332  72.1516 287.9728 15.06414258 64382","REF_FRAME":"TEME","DECAY_DATE":null,"PERIAPSIS":"545.555","CENTER_NAME":"EARTH","MEAN_MOTION_DOT":"0.00003372","GP_ID":"207693734","RA_OF_ASC_NODE":"96.8827","CLASSIFICATION_TYPE":"U","EPOCH":"2022-07-08T17:45:52.579296","PERIOD":"95.591","EPHEMERIS_TYPE":"0","FILE":"3510087","MEAN_ANOMALY":"287.9728","ELEMENT_SET_NO":"999"},{"EPOCH":"2022-07-08T18:45:40.681440","CLASSIFICATION_TYPE":"U","RA_OF_ASC_NODE":"96.9833","MEAN_MOTION_DOT":"0.00002407","GP_ID":"207693984","EPHEMERIS_TYPE":"0","PERIOD":"95.591","FILE":"3510087","MEAN_ANOMALY":"289.3063","ELEMENT_SET_NO":"999","INCLINATION":"53.0554","MEAN_MOTION_DDOT":"0.0000000000000","ECCENTRICITY":"0.00020080","TLE_LINE2":"2 48481  53.0554  96.9833 0002008  70.8143 289.3063 15.06410145 64389","OBJECT_TYPE":"PAYLOAD","REF_FRAME":"TEME","CENTER_NAME":"EARTH","PERIAPSIS":"545.792","DECAY_DATE":null,"COUNTRY_CODE":"US","LAUNCH_DATE":"2021-05-09","ARG_OF_PERICENTER":"70.8143","SEMIMAJOR_AXIS":"6925.317","TIME_SYSTEM":"UTC","REV_AT_EPOCH":"6438","RCS_SIZE":"LARGE","NORAD_CAT_ID":"48481","BSTAR":"0.00018038000000","MEAN_ELEMENT_THEORY":"SGP4","SITE":"AFETR","OBJECT_ID":"2021-040BF","TLE_LINE1":"1 48481U 21040BF  22189.78172085  .00002407  00000-0  18038-3 0  9998","APOAPSIS":"548.573","MEAN_MOTION":"15.06410145","OBJECT_NAME":"STARLINK-2706"},{"APOAPSIS":"548.458","MEAN_MOTION":"15.06411450","OBJECT_NAME":"STARLINK-2525","BSTAR":"0.00004643100000","MEAN_ELEMENT_THEORY":"SGP4","SITE":"AFETR","TLE_LINE1":"1 48482U 21040BG  22189.68216955  .00000410  00000-0  46431-4 0  9994","OBJECT_ID":"2021-040BG","SEMIMAJOR_AXIS":"6925.313","TIME_SYSTEM":"UTC","REV_AT_EPOCH":"6437","NORAD_CAT_ID":"48482","RCS_SIZE":"LARGE","COUNTRY_CODE":"US","ARG_OF_PERICENTER":"73.1390","LAUNCH_DATE":"2021-05-09","REF_FRAME":"TEME","PERIAPSIS":"545.899","CENTER_NAME":"EARTH","DECAY_DATE":null,"INCLINATION":"53.0553","ECCENTRICITY":"0.00018470","MEAN_MOTION_DDOT":"0.0000000000000","TLE_LINE2":"2 48482  53.0553  97.1572 0001847  73.1390 286.9801 15.06411450 64374","OBJECT_TYPE":"PAYLOAD","FILE":"3510087","ELEMENT_SET_NO":"999","MEAN_ANOMALY":"286.9801","EPOCH":"2022-07-08T16:22:19.449120","MEAN_MOTION_DOT":"0.00000410","GP_ID":"207695236","CLASSIFICATION_TYPE":"U","RA_OF_ASC_NODE":"97.1572","EPHEMERIS_TYPE":"0","PERIOD":"95.591"},{"MEAN_ELEMENT_THEORY":"SGP4","BSTAR":"0.00013730000000","TLE_LINE1":"1 48483U 21040BH  22189.47944577  .00001764  00000-0  13730-3 0  9998","OBJECT_ID":"2021-040BH","SITE":"AFETR","MEAN_MOTION":"15.06398731","APOAPSIS":"548.806","OBJECT_NAME":"STARLINK-2531","ARG_OF_PERICENTER":"60.9037","LAUNCH_DATE":"2021-05-09","COUNTRY_CODE":"US","SEMIMAJOR_AXIS":"6925.352","TIME_SYSTEM":"UTC","NORAD_CAT_ID":"48483","RCS_SIZE":"LARGE","REV_AT_EPOCH":"6434","ECCENTRICITY":"0.00022940","MEAN_MOTION_DDOT":"0.0000000000000","INCLINATION":"53.0550","OBJECT_TYPE":"PAYLOAD","TLE_LINE2":"2 48483  53.0550  98.0641 0002294  60.9037 299.2181 15.06398731 64349","REF_FRAME":"TEME","DECAY_DATE":null,"PERIAPSIS":"545.629","CENTER_NAME":"EARTH","MEAN_MOTION_DOT":"0.00001764","GP_ID":"207666818","CLASSIFICATION_TYPE":"U","RA_OF_ASC_NODE":"98.0641","EPOCH":"2022-07-08T11:30:24.114528","PERIOD":"95.592","EPHEMERIS_TYPE":"0","FILE":"3509949","ELEMENT_SET_NO":"999","MEAN_ANOMALY":"299.2181"},{"BSTAR":"0.00017080000000","MEAN_ELEMENT_THEORY":"SGP4","SITE":"AFETR","TLE_LINE1":"1 48484U 21040BJ  22189.82226727  .00002264  00000-0  17080-3 0  9996","OBJECT_ID":"2021-040BJ","APOAPSIS":"548.485","MEAN_MOTION":"15.06414300","OBJECT_NAME":"STARLINK-2696","COUNTRY_CODE":"US","LAUNCH_DATE":"2021-05-09","ARG_OF_PERICENTER":"64.6511","TIME_SYSTEM":"UTC","SEMIMAJOR_AXIS":"6925.305","REV_AT_EPOCH":"6439","RCS_SIZE":"LARGE","NORAD_CAT_ID":"48484","INCLINATION":"53.0569","MEAN_MOTION_DDOT":"0.0000000000000","ECCENTRICITY":"0.00018990","TLE_LINE2":"2 48484  53.0569  96.8841 0001899  64.6511 295.4675 15.06414300 64398","OBJECT_TYPE":"PAYLOAD","REF_FRAME":"TEME","CENTER_NAME":"EARTH","PERIAPSIS":"545.855","DECAY_DATE":null,"EPOCH":"2022-07-08T19:44:03.892128","RA_OF_ASC_NODE":"96.8841","CLASSIFICATION_TYPE":"U","GP_ID":"207694235","MEAN_MOTION_DOT":"0.00002264","EPHEMERIS_TYPE":"0","PERIOD":"95.591","FILE":"3510087","ELEMENT_SET_NO":"999","MEAN_ANOMALY":"295.4675"},{"OBJECT_NAME":"STARLINK-2500","APOAPSIS":"548.295","MEAN_MOTION":"15.06415982","SITE":"AFETR","TLE_LINE1":"1 48485U 21040BK  22189.48681493  .00005865  00000-0  41210-3 0  9996","OBJECT_ID":"2021-040BK","BSTAR":"0.00041210000000","MEAN_ELEMENT_THEORY":"SGP4","REV_AT_EPOCH":"6434","NORAD_CAT_ID":"48485","RCS_SIZE":"LARGE","TIME_SYSTEM":"UTC","SEMIMAJOR_AXIS":"6925.300","COUNTRY_CODE":"US","ARG_OF_PERICENTER":"79.3708","LAUNCH_DATE":"2021-05-09","PERIAPSIS":"546.034","CENTER_NAME":"EARTH","DECAY_DATE":null,"REF_FRAME":"TEME","TLE_LINE2":"2 48485  53.0540  98.0312 0001632  79.3708 280.7465 15.06415982 64347","OBJECT_TYPE":"PAYLOAD","INCLINATION":"53.0540","ECCENTRICITY":"0.00016320","MEAN_MOTION_DDOT":"0.0000000000000","ELEMENT_SET_NO":"999","MEAN_ANOMALY":"280.7465","FILE":"3509949","EPHEMERIS_TYPE":"0","PERIOD":"95.591","EPOCH":"2022-07-08T11:41:00.809952","MEAN_MOTION_DOT":"0.00005865","GP_ID":"207665821","CLASSIFICATION_TYPE":"U","RA_OF_ASC_NODE":"98.0312"}];
